0 SL-16 DEB
1 27007U 01056G   13281.49269831  .00000692  00000-0  80237-3 0  4057
2 27007 099.2053 130.3552 0011593 246.0741 113.9193 13.72435671591694
0 SL-16 DEB
1 27007U 01056G   13283.53394789  .00000758  00000-0  87414-3 0  4063
2 27007 099.2050 132.3161 0011565 240.2269 119.7730 13.72440655591979
0 SL-16 DEB
1 27007U 01056G   13285.57519182  .00000784  00000-0  90341-3 0  4078
2 27007 099.2045 134.2769 0011566 234.3960 125.6112 13.72443570592252
0 SL-16 DEB
1 27007U 01056G   13287.83513433  .00000915  00000-0  10459-2 0  4080
2 27007 099.2039 136.4479 0011627 227.9425 132.0735 13.72448321592565
0 SL-16 DEB
1 27007U 01056G   13290.38667303  .00000930  00000-0  10620-2 0  4098
2 27007 099.2037 138.8990 0011628 220.8009 139.2269 13.72453887592911
0 SL-16 DEB
1 27007U 01056G   13292.57369858  .00000991  00000-0  11283-2 0  4100
2 27007 099.2035 140.9996 0011673 214.5292 145.5099 13.72457824593213
0 SL-16 DEB
1 27007U 01056G   13295.05231948  .00001028  00000-0  11689-2 0  4117
2 27007 099.2034 143.3802 0011740 207.5280 152.5247 13.72463099593550
